IRIDIUM 7 [-]           
1 24793U 97020B   24085.21429131  .00001188  00000+0  40953-3 0  9996
2 24793  86.4025   4.9864 0002235  92.8932 267.2520 14.35131422407706
IRIDIUM 5 [-]           
1 24795U 97020D   24085.51774392  .00011045  00000+0  10821-2 0  9996
2 24795  86.3873 289.1983 0122271 300.0248  58.8890 14.86642733418663
IRIDIUM 4 [-]           
1 24796U 97020E   24084.85700611  .00002426  00000+0  82798-3 0  9992
2 24796  86.4021   2.3144 0002058  88.2805 271.8627 14.36056000407965
IRIDIUM 914 [-]         
1 24836U 97030A   24085.53003141  .00001856  00000+0  58485-3 0  9990
2 24836  86.3996  11.9432 0000451 112.4245 247.7002 14.39895055404644
IRIDIUM 16 [-]          
1 24841U 97030F   24085.38333889  .00001632  00000+0  53598-3 0  9996
2 24841  86.4067  33.7544 0004303  92.4679 267.7011 14.37778161402752
IRIDIUM 911 [-]         
1 24842U 97030G   24085.39449559  .00002130  00000+0  58723-3 0  9999
2 24842  86.4494  32.9474 0015348 145.6010 214.6189 14.46381380410165
IRIDIUM 17 [-]          
1 24870U 97034B   24085.22985638  .00001560  00000+0  52157-3 0  9990
2 24870  86.3929  63.4439 0003629  69.2851 290.8734 14.36864132399091
IRIDIUM 920 [-]         
1 24871U 97034C   24085.17737300  .00001560  00000+0  48311-3 0  9993
2 24871  86.3985  43.7338 0013469 117.2833 242.9740 14.40590261402173
